{"type": "FeatureCollection", "features": [ {"type": "Feature", "properties": {"norad_id": 54031, "name": "COSMOS 2559 (707K)", "group": "gnss", "lat": 40.227994784135824, "lon": 116.7259277308743, "alt_km": 19109.488918474788, "timestamp": "2025-12-25T22:42:17.255181+00:00", "meta": {"OBJECT_NAME": "COSMOS 2559 (707K)", "OBJECT_ID": "2022-130A", "EPOCH": "2025-12-25T07:14:23.309088", "MEAN_MOTION": 2.13101233, "ECCENTRICITY": 0.0011493, "INCLINATION": 64.3751, "RA_OF_ASC_NODE": 320.6993, "ARG_OF_PERICENTER": 191.6749, "MEAN_ANOMALY": 168.3019, "EPHEMERIS_TYPE": 0, "CLASSIFICATION_TYPE": "U", "NORAD_CAT_ID": 54031, "ELEMENT_SET_NO": 999, "REV_AT_EPOCH": 2498, "BSTAR": 0, "MEAN_MOTION_DOT": -3.5e-07, "MEAN_MOTION_DDOT": 0}, "tle": {"line1": "1 54031U 22130A   25359.30165867 -.00000035  00000+0  00000+0 0  9998", "line2": "2 54031  64.3751 320.6993 0011493 191.6749 168.3019  2.13101233 24985"}}, "geometry": {"type": "Point", "coordinates": [116.7259277308743, 40.227994784135824]}}, {"type": "Feature", "properties": {"norad_id": 54377, "name": "COSMOS 2564 (761)", "group": "gnss", "lat": -60.367743957527935, "lon": 74.60633497849481, "alt_km": 19122.372904954445, "timestamp": "2025-12-25T22:42:17.255192+00:00", "meta": {"OBJECT_NAME": "COSMOS 2564 (761)", "OBJECT_ID": "2022-161A", "EPOCH": "2025-12-25T03:29:54.558240", "MEAN_MOTION": 2.13102011, "ECCENTRICITY": 0.0008544, "INCLINATION": 64.739, "RA_OF_ASC_NODE": 198.4867, "ARG_OF_PERICENTER": 203.5994, "MEAN_ANOMALY": 156.4178, "EPHEMERIS_TYPE": 0, "CLASSIFICATION_TYPE": "U", "NORAD_CAT_ID": 54377, "ELEMENT_SET_NO": 999, "REV_AT_EPOCH": 2392, "BSTAR": 0, "MEAN_MOTION_DOT": 1.03e-06, "MEAN_MOTION_DDOT": 0}, "tle": {"line1": "1 54377U 22161A   25359.14577035  .00000103  00000+0  00000+0 0  9996", "line2": "2 54377  64.7390 198.4867 0008544 203.5994 156.4178  2.13102011 23922"}}, "geometry": {"type": "Point", "coordinates": [74.60633497849481, -60.367743957527935]}}, {"type": "Feature", "properties": {"norad_id": 55268, "name": "GPS BIII-6  (PRN 28)", "group": "gnss", "lat": -1.2785231715878072, "lon": 154.42567009245013, "alt_km": 20173.61091274025, "timestamp": "2025-12-25T22:42:17.255203+00:00", "meta": {"OBJECT_NAME": "GPS BIII-6  (PRN 28)", "OBJECT_ID": "2023-009A", "EPOCH": "2025-12-22T10:59:58.065216", "MEAN_MOTION": 2.00554901, "ECCENTRICITY": 0.00037047, "INCLINATION": 55.1065, "RA_OF_ASC_NODE": 155.4638, "ARG_OF_PERICENTER": 355.7912, "MEAN_ANOMALY": 4.4255, "EPHEMERIS_TYPE": 0, "CLASSIFICATION_TYPE": "U", "NORAD_CAT_ID": 55268, "ELEMENT_SET_NO": 999, "REV_AT_EPOCH": 2170, "BSTAR": 0, "MEAN_MOTION_DOT": 7.4e-07, "MEAN_MOTION_DDOT": 0}, "tle": {"line1": "1 55268U 23009A   25356.45831094  .00000074  00000+0  00000+0 0  9994", "line2": "2 55268  55.1065 155.4638 0003704 355.7912   4.4255  2.00554901 21704"}}, "geometry": {"type": "Point", "coordinates": [154.42567009245013, -1.2785231715878072]}}, {"type": "Feature", "properties": {"norad_id": 56564, "name": "BEIDOU-3 G4 (C62)", "group": "gnss", "lat": -0.7425247861412093, "lon": -124.65804922261214, "alt_km": 35781.57108619451, "timestamp": "2025-12-25T22:42:17.255216+00:00", "meta": {"OBJECT_NAME": "BEIDOU-3 G4 (C62)", "OBJECT_ID": "2023-066A", "EPOCH": "2025-12-25T15:32:12.975360", "MEAN_MOTION": 1.00270794, "ECCENTRICITY": 0.0002551, "INCLINATION": 0.7883, "RA_OF_ASC_NODE": 303.0493, "ARG_OF_PERICENTER": 229.5368, "MEAN_ANOMALY": 314.9254, "EPHEMERIS_TYPE": 0, "CLASSIFICATION_TYPE": "U", "NORAD_CAT_ID": 56564, "ELEMENT_SET_NO": 999, "REV_AT_EPOCH": 965, "BSTAR": 0, "MEAN_MOTION_DOT": -8.9e-07, "MEAN_MOTION_DDOT": 0}, "tle": {"line1": "1 56564U 23066A   25359.64737240 -.00000089  00000+0  00000+0 0  9996", "line2": "2 56564   0.7883 303.0493 0002551 229.5368 314.9254  1.00270794  9652"}}, "geometry": {"type": "Point", "coordinates": [-124.65804922261214, -0.7425247861412093]}}, {"type": "Feature", "properties": {"norad_id": 56759, "name": "NVS-01 (IRNSS-1J)", "group": "gnss", "lat": -1.8805539896812082, "lon": -155.23883768960192, "alt_km": 35770.05127777474, "timestamp": "2025-12-25T22:42:17.255228+00:00", "meta": {"OBJECT_NAME": "NVS-01 (IRNSS-1J)", "OBJECT_ID": "2023-076A", "EPOCH": "2025-12-25T12:13:38.614080", "MEAN_MOTION": 1.00270793, "ECCENTRICITY": 0.0008901, "INCLINATION": 2.5885, "RA_OF_ASC_NODE": 251.1474, "ARG_OF_PERICENTER": 17.391, "MEAN_ANOMALY": 138.7047, "EPHEMERIS_TYPE": 0, "CLASSIFICATION_TYPE": "U", "NORAD_CAT_ID": 56759, "ELEMENT_SET_NO": 999, "REV_AT_EPOCH": 937, "BSTAR": 0, "MEAN_MOTION_DOT": -3.13e-06, "MEAN_MOTION_DDOT": 0}, "tle": {"line1": "1 56759U 23076A   25359.50947470 -.00000313  00000+0  00000+0 0  9996", "line2": "2 56759   2.5885 251.1474 0008901  17.3910 138.7047  1.00270793  9373"}}, "geometry": {"type": "Point", "coordinates": [-155.23883768960192, -1.8805539896812082]}}, {"type": "Feature", "properties": {"norad_id": 57517, "name": "COSMOS 2569 (703K)", "group": "gnss", "lat": -54.370057478555744, "lon": -61.41840759329088, "alt_km": 19115.53676691742, "timestamp": "2025-12-25T22:42:17.255253+00:00", "meta": {"OBJECT_NAME": "COSMOS 2569 (703K)", "OBJECT_ID": "2023-114A", "EPOCH": "2025-12-25T03:49:07.556736", "MEAN_MOTION": 2.13103965, "ECCENTRICITY": 0.00109757, "INCLINATION": 65.2004, "RA_OF_ASC_NODE": 78.4938, "ARG_OF_PERICENTER": 287.1624, "MEAN_ANOMALY": 72.767, "EPHEMERIS_TYPE": 0, "CLASSIFICATION_TYPE": "U", "NORAD_CAT_ID": 57517, "ELEMENT_SET_NO": 999, "REV_AT_EPOCH": 1855, "BSTAR": 0, "MEAN_MOTION_DOT": -1e-08, "MEAN_MOTION_DDOT": 0}, "tle": {"line1": "1 57517U 23114A   25359.15911524 -.00000001  00000+0  00000+0 0  9998", "line2": "2 57517  65.2004  78.4938 0010975 287.1624  72.7670  2.13103965 18553"}}, "geometry": {"type": "Point", "coordinates": [-61.41840759329088, -54.370057478555744]}}, {"type": "Feature", "properties": {"norad_id": 58654, "name": "BEIDOU-3 M28 (C50)", "group": "gnss", "lat": 43.37679171989544, "lon": 108.46656025777973, "alt_km": 21529.25343723426, "timestamp": "2025-12-25T22:42:17.255267+00:00", "meta": {"OBJECT_NAME": "BEIDOU-3 M28 (C50)", "OBJECT_ID": "2023-207A", "EPOCH": "2025-12-24T18:54:51.717312", "MEAN_MOTION": 1.86229668, "ECCENTRICITY": 0.0002918, "INCLINATION": 55.5946, "RA_OF_ASC_NODE": 68.1934, "ARG_OF_PERICENTER": 275.8619, "MEAN_ANOMALY": 84.1589, "EPHEMERIS_TYPE": 0, "CLASSIFICATION_TYPE": "U", "NORAD_CAT_ID": 58654, "ELEMENT_SET_NO": 999, "REV_AT_EPOCH": 1359, "BSTAR": 0, "MEAN_MOTION_DOT": -2.7e-07, "MEAN_MOTION_DDOT": 0}, "tle": {"line1": "1 58654U 23207A   25358.78809858 -.00000027  00000+0  00000+0 0  9996", "line2": "2 58654  55.5946  68.1934 0002918 275.8619  84.1589  1.86229668 13594"}}, "geometry": {"type": "Point", "coordinates": [108.46656025777973, 43.37679171989544]}}, {"type": "Feature", "properties": {"norad_id": 58655, "name": "BEIDOU-3 M26 (C48)", "group": "gnss", "lat": -9.905437577298756, "lon": -104.97885411974914, "alt_km": 21525.418053124442, "timestamp": "2025-12-25T22:42:17.255278+00:00", "meta": {"OBJECT_NAME": "BEIDOU-3 M26 (C48)", "OBJECT_ID": "2023-207B", "EPOCH": "2025-12-25T15:49:44.827104", "MEAN_MOTION": 1.86231167, "ECCENTRICITY": 0.0004253, "INCLINATION": 55.5974, "RA_OF_ASC_NODE": 68.1501, "ARG_OF_PERICENTER": 261.5267, "MEAN_ANOMALY": 98.4781, "EPHEMERIS_TYPE": 0, "CLASSIFICATION_TYPE": "U", "NORAD_CAT_ID": 58655, "ELEMENT_SET_NO": 999, "REV_AT_EPOCH": 1359, "BSTAR": 0, "MEAN_MOTION_DOT": -2.9e-07, "MEAN_MOTION_DDOT": 0}, "tle": {"line1": "1 58655U 23207B   25359.65954661 -.00000029  00000+0  00000+0 0  9999", "line2": "2 58655  55.5974  68.1501 0004253 261.5267  98.4781  1.86231167 13590"}}, "geometry": {"type": "Point", "coordinates": [-104.97885411974914, -9.905437577298756]}}, {"type": "Feature", "properties": {"norad_id": 59598, "name": "GSAT0225 (GALILEO 29)", "group": "gnss", "lat": 52.92935538258254, "lon": -141.86966430961692, "alt_km": 23215.706739944264, "timestamp": "2025-12-25T22:42:17.255289+00:00", "meta": {"OBJECT_NAME": "GSAT0225 (GALILEO 29)", "OBJECT_ID": "2024-079A", "EPOCH": "2025-12-25T18:42:53.226144", "MEAN_MOTION": 1.70474814, "ECCENTRICITY": 0.0002177, "INCLINATION": 55.0084, "RA_OF_ASC_NODE": 105.9312, "ARG_OF_PERICENTER": 191.4017, "MEAN_ANOMALY": 169.7242, "EPHEMERIS_TYPE": 0, "CLASSIFICATION_TYPE": "U", "NORAD_CAT_ID": 59598, "ELEMENT_SET_NO": 999, "REV_AT_EPOCH": 1036, "BSTAR": 0, "MEAN_MOTION_DOT": 1.7e-07, "MEAN_MOTION_DDOT": 0}, "tle": {"line1": "1 59598U 24079A   25359.77978271  .00000017  00000+0  00000+0 0  9996", "line2": "2 59598  55.0084 105.9312 0002177 191.4017 169.7242  1.70474814 10368"}}, "geometry": {"type": "Point", "coordinates": [-141.86966430961692, 52.92935538258254]}}, {"type": "Feature", "properties": {"norad_id": 59600, "name": "GSAT0227 (GALILEO 30)", "group": "gnss", "lat": -7.6972092569884705, "lon": 100.49942885219758, "alt_km": 23228.35898727674, "timestamp": "2025-12-25T22:42:17.255300+00:00", "meta": {"OBJECT_NAME": "GSAT0227 (GALILEO 30)", "OBJECT_ID": "2024-079C", "EPOCH": "2025-12-21T20:31:35.455872", "MEAN_MOTION": 1.70474868, "ECCENTRICITY": 0.00028355, "INCLINATION": 55.0019, "RA_OF_ASC_NODE": 106.0394, "ARG_OF_PERICENTER": 117.3615, "MEAN_ANOMALY": 242.6419, "EPHEMERIS_TYPE": 0, "CLASSIFICATION_TYPE": "U", "NORAD_CAT_ID": 59600, "ELEMENT_SET_NO": 999, "REV_AT_EPOCH": 1034, "BSTAR": 0, "MEAN_MOTION_DOT": 4e-08, "MEAN_MOTION_DDOT": 0}, "tle": {"line1": "1 59600U 24079C   25355.85527148  .00000004  00000+0  00000+0 0  9994", "line2": "2 59600  55.0019 106.0394 0002835 117.3615 242.6419  1.70474868 10348"}}, "geometry": {"type": "Point", "coordinates": [100.49942885219758, -7.6972092569884705]}}]}